{
    "links": {
        "self": "http://www.neowsapp.com/rest/v1/neo/54073352?api_key=iIulBulltgU6a56xZRHN4H3l9WmuAYTsLGpBGhQ2"
    },
    "id": "54073352",
    "neo_reference_id": "54073352",
    "name": "(2020 UK)",
    "designation": "2020 UK",
    "nasa_jpl_url": "http://ssd.jpl.nasa.gov/sbdb.cgi?sstr=54073352",
    "absolute_magnitude_h": 26.824,
    "estimated_diameter": {
        "kilometers": {
            "estimated_diameter_min": 0.0114750603,
            "estimated_diameter_max": 0.0256590149
        },
        "meters": {
            "estimated_diameter_min": 11.475060306,
            "estimated_diameter_max": 25.6590148902
        },
        "miles": {
            "estimated_diameter_min": 0.0071302697,
            "estimated_diameter_max": 0.0159437677
        },
        "feet": {
            "estimated_diameter_min": 37.6478368545,
            "estimated_diameter_max": 84.1831224124
        }
    },
    "is_potentially_hazardous_asteroid": false,
    "close_approach_data": [
        {
            "close_approach_date": "1916-09-29",
            "close_approach_date_full": "1916-Sep-29 08:49",
            "epoch_date_close_approach": -1680621060000,
            "relative_velocity": {
                "kilometers_per_second": "9.473652761",
                "kilometers_per_hour": "34105.1499394612",
                "miles_per_hour": "21191.6138609947"
            },
            "miss_distance": {
                "astronomical": "0.191138048",
                "lunar": "74.352700672",
                "kilometers": "28593844.85675776",
                "miles": "17767391.309106688"
            },
            "orbiting_body": "Earth"
        },
        {
            "close_approach_date": "1935-10-26",
            "close_approach_date_full": "1935-Oct-26 13:19",
            "epoch_date_close_approach": -1078742460000,
            "relative_velocity": {
                "kilometers_per_second": "5.9577441301",
                "kilometers_per_hour": "21447.8788684085",
                "miles_per_hour": "13326.8778446508"
            },
            "miss_distance": {
                "astronomical": "0.0643123238",
                "lunar": "25.0174939582",
                "kilometers": "9620986.655230306",
                "miles": "5978203.8945619828"
            },
            "orbiting_body": "Earth"
        },
        {
            "close_approach_date": "1942-09-16",
            "close_approach_date_full": "1942-Sep-16 19:28",
            "epoch_date_close_approach": -861251520000,
            "relative_velocity": {
                "kilometers_per_second": "14.4313658847",
                "kilometers_per_hour": "51952.9171847468",
                "miles_per_hour": "32281.5223473778"
            },
            "miss_distance": {
                "astronomical": "0.37107604",
                "lunar": "144.34857956",
                "kilometers": "55512185.1920348",
                "miles": "34493672.38548824"
            },
            "orbiting_body": "Earth"
        },
        {
            "close_approach_date": "2017-11-23",
            "close_approach_date_full": "2017-Nov-23 13:20",
            "epoch_date_close_approach": 1511443200000,
            "relative_velocity": {
                "kilometers_per_second": "6.9248529434",
                "kilometers_per_hour": "24929.4705961388",
                "miles_per_hour": "15490.2035490286"
            },
            "miss_distance": {
                "astronomical": "0.0860650961",
                "lunar": "33.4793223829",
                "kilometers": "12875155.057905307",
                "miles": "8000250.3764429566"
            },
            "orbiting_body": "Mars"
        },
        {
            "close_approach_date": "2020-10-19",
            "close_approach_date_full": "2020-Oct-19 17:09",
            "epoch_date_close_approach": 1603127340000,
            "relative_velocity": {
                "kilometers_per_second": "5.9514490661",
                "kilometers_per_hour": "21425.2166381148",
                "miles_per_hour": "13312.7964160553"
            },
            "miss_distance": {
                "astronomical": "0.0418340243",
                "lunar": "16.2734354527",
                "kilometers": "6258280.928808241",
                "miles": "3888715.4470300858"
            },
            "orbiting_body": "Earth"
        }
    ],
    "orbital_data": {
        "orbit_id": "2",
        "orbit_determination_date": "2020-10-21 07:41:46",
        "first_observation_date": "2020-10-09",
        "last_observation_date": "2020-10-21",
        "data_arc_in_days": 12,
        "observations_used": 30,
        "orbit_uncertainty": "8",
        "minimum_orbit_intersection": ".0416806",
        "jupiter_tisserand_invariant": "4.600",
        "epoch_osculation": "2459134.5",
        "eccentricity": ".2857155713335476",
        "semi_major_axis": "1.44424416111173",
        "inclination": "9.024461542365428",
        "ascending_node_longitude": "23.09722300643589",
        "orbital_period": "633.9563517645365",
        "perihelion_distance": "1.031601115474552",
        "perihelion_argument": "15.2656731785394",
        "aphelion_distance": "1.856887206748908",
        "perihelion_time": "2459153.476910303311",
        "mean_anomaly": "349.2237254344454",
        "mean_motion": ".5678624387909136",
        "equinox": "J2000",
        "orbit_class": {
            "orbit_class_type": "AMO",
            "orbit_class_description": "Near-Earth asteroid orbits similar to that of 1221 Amor",
            "orbit_class_range": "1.017 AU < q (perihelion) < 1.3 AU"
        }
    },
    "is_sentry_object": false
}